[{"OBJECT_NAME":"TEN-KOH","OBJECT_ID":"2018-084G","EPOCH":"2026-03-09T23:23:52.653408","MEAN_MOTION":15.02465351,"ECCENTRICITY":0.0011972,"INCLINATION":98.0798,"RA_OF_ASC_NODE":257.1735,"ARG_OF_PERICENTER":91.8355,"MEAN_ANOMALY":268.424,"EPHEMERIS_TYPE":0,"CLASSIFICATION_TYPE":"U","NORAD_CAT_ID":43677,"ELEMENT_SET_NO":999,"REV_AT_EPOCH":40126,"BSTAR":0.00025918134,"MEAN_MOTION_DOT":3.377e-5,"MEAN_MOTION_DDOT":0},{"OBJECT_NAME":"STARLINK-34291","OBJECT_ID":"2025-126R","EPOCH":"2026-03-09T07:03:09.205056","MEAN_MOTION":14.98331543,"ECCENTRICITY":0.00027877,"INCLINATION":70.0032,"RA_OF_ASC_NODE":35.4075,"ARG_OF_PERICENTER":257.6195,"MEAN_ANOMALY":102.4652,"EPHEMERIS_TYPE":0,"CLASSIFICATION_TYPE":"U","NORAD_CAT_ID":64359,"ELEMENT_SET_NO":999,"REV_AT_EPOCH":4062,"BSTAR":0.00017897491,"MEAN_MOTION_DOT":2.043e-5,"MEAN_MOTION_DDOT":0}]
